0 FENGYUN 1C DEB
1 30699U 99025ARH 13283.04228412  .00002761  00000-0  14122-2 0  9989
2 30699 099.3221 049.5909 0002241 339.4655 074.0273 14.16439924342325
0 FENGYUN 1C DEB
1 30699U 99025ARH 13285.30470949  .00002355  00000-0  12079-2 0  9993
2 30699 099.3221 051.9588 0002308 329.7767 093.9224 14.16451787342647
0 FENGYUN 1C DEB
1 30699U 99025ARH 13288.34212322  .00003443  00000-0  17542-2 0    01
2 30699 099.3229 055.1385 0002408 316.7047 107.0013 14.16467459343078
0 FENGYUN 1C DEB
1 30699U 99025ARH 13290.61523375  .00003375  00000-0  17196-2 0    17
2 30699 099.3235 057.5182 0002531 306.8860 181.7194 14.16480816343404
0 FENGYUN 1C DEB
1 30699U 99025ARH 13292.81066089  .00003015  00000-0  15383-2 0    23
2 30699 099.3236 059.8169 0002648 298.8142 218.8828 14.16494491343711
0 FENGYUN 1C DEB
1 30699U 99025ARH 13294.85790484  .00003661  00000-0  18622-2 0    39
2 30699 099.3234 061.9606 0002801 291.4769 220.1868 14.16505808344002
